STARLINK-3046           
1 49169U 21082AR  25338.70177387  .00000060  00000+0  12802-4 0  9995
2 49169  70.0003 153.9661 0003027 269.6085  90.4727 14.98332733232245
STARLINK-3107           
1 49171U 21082AT  25338.67373612  .00019512  00000+0  13438-2 0  9999
2 49171  69.9944 171.2884 0002706 351.2457   8.8658 15.05868629232976
STARLINK-3045           
1 49173U 21082AV  25338.66668980 -.00029383  00000+0 -24633-2 0  9993
2 49173  69.9991 154.0322 0002862 269.0732 329.3199 14.98358128  5463
STARLINK-3087           
1 49175U 21082AX  25338.62245435 -.00002103  00000+0 -17225-3 0  9998
2 49175  69.9995 154.7728 0002650 261.8261  98.2597 14.97504875232218
STARLINK-3069           
1 49176U 21082AY  25338.63894878 -.00001213  00000+0 -93848-4 0  9998
2 49176  69.9993 134.1082 0002928 268.0768  92.0056 14.98337194232728
STARLINK-3103           
1 49177U 21082AZ  25338.59305174  .00000763  00000+0  71726-4 0  9998
2 49177  69.9991 134.2341 0002977 271.4839  88.5979 14.98337211233913
STARLINK-3086           
1 49178U 21082BA  25338.68531258  .00000149  00000+0  20285-4 0  9995
2 49178  69.9983 173.9800 0002910 268.3027  91.7798 14.98331024232905
STARLINK-3043           
1 49179U 21082BB  25338.64729740  .00002218  00000+0  19360-3 0  9997
2 49179  69.9990 134.0799 0002781 271.0558  89.0282 14.98337404232721
STARLINK-3050           
1 49180U 21082BC  25338.69760190 -.00000449  00000+0 -29879-4 0  9991
2 49180  69.9987 153.9599 0002973 270.6401  89.4418 14.98325947233413
STARLINK-3059           
1 49181U 21082BD  25338.66862589 -.00002086  00000+0 -16712-3 0  9994
2 49181  69.9991 174.0377 0002758 262.9561  97.1284 14.98327436232937
STARLINK-3151           
1 49408U 21104A   25338.59213936  .00001127  00000+0  88891-4 0  9990
2 49408  53.2191 296.0602 0001522  88.9340 271.1826 15.08844008224277
STARLINK-3075           
1 49409U 21104B   25338.20845912  .00000632  00000+0  57774-4 0  9990
2 49409  53.2174 297.7514 0001436  93.7441 266.3716 15.08855837224220
STARLINK-3147           
1 49410U 21104C   25338.20206123  .00001144  00000+0  89926-4 0  9990
2 49410  53.2193 297.7928 0001520  97.1202 262.9963 15.08843552224215
STARLINK-3162           
1 49411U 21104D   25338.59208928  .00002338  00000+0  16484-3 0  9992
2 49411  53.2184 286.0273 0001410 100.5466 259.5685 15.08855149224419
STARLINK-3157           
1 49413U 21104F   25338.58937742 -.00000168  00000+0  75647-5 0  9994
2 49413  53.2196 286.0497 0001576  95.7813 264.3359 15.08850105224415
STARLINK-3146           
1 49414U 21104G   25338.19742108  .00001786  00000+0  13024-3 0  9997
2 49414  53.2178 297.8036 0001313  98.1030 262.0111 15.08845989224215
STARLINK-3159           
1 49415U 21104H   25338.58475506 -.00000297  00000+0 -59312-6 0  9997
2 49415  53.2197 286.0633 0001353  81.8255 278.2891 15.08835614224401
