[{"OBJECT_NAME":"STARLINK-3046","OBJECT_ID":"2021-082AR","EPOCH":"2025-12-04T16:50:33.262368","MEAN_MOTION":14.98332733,"ECCENTRICITY":0.0003027,"INCLINATION":70.0003,"RA_OF_ASC_NODE":153.9661,"ARG_OF_PERICENTER":269.6085,"MEAN_ANOMALY":90.4727,"EPHEMERIS_TYPE":0,"CLASSIFICATION_TYPE":"U","NORAD_CAT_ID":49169,"ELEMENT_SET_NO":999,"REV_AT_EPOCH":23224,"BSTAR":1.2802e-5,"MEAN_MOTION_DOT":6.0e-7,"MEAN_MOTION_DDOT":0},{"OBJECT_NAME":"STARLINK-3107","OBJECT_ID":"2021-082AT","EPOCH":"2025-12-04T16:10:10.800768","MEAN_MOTION":15.05868629,"ECCENTRICITY":0.0002706,"INCLINATION":69.9944,"RA_OF_ASC_NODE":171.2884,"ARG_OF_PERICENTER":351.2457,"MEAN_ANOMALY":8.8658,"EPHEMERIS_TYPE":0,"CLASSIFICATION_TYPE":"U","NORAD_CAT_ID":49171,"ELEMENT_SET_NO":999,"REV_AT_EPOCH":23297,"BSTAR":0.0013438,"MEAN_MOTION_DOT":0.00019512,"MEAN_MOTION_DDOT":0},{"OBJECT_NAME":"STARLINK-3045","OBJECT_ID":"2021-082AV","EPOCH":"2025-12-04T16:00:01.998720","MEAN_MOTION":14.98358128,"ECCENTRICITY":0.0002862,"INCLINATION":69.9991,"RA_OF_ASC_NODE":154.0322,"ARG_OF_PERICENTER":269.0732,"MEAN_ANOMALY":329.3199,"EPHEMERIS_TYPE":0,"CLASSIFICATION_TYPE":"U","NORAD_CAT_ID":49173,"ELEMENT_SET_NO":999,"REV_AT_EPOCH":546,"BSTAR":-0.0024633,"MEAN_MOTION_DOT":-0.00029383,"MEAN_MOTION_DDOT":0},{"OBJECT_NAME":"STARLINK-3087","OBJECT_ID":"2021-082AX","EPOCH":"2025-12-04T14:56:20.055840","MEAN_MOTION":14.97504875,"ECCENTRICITY":0.000265,"INCLINATION":69.9995,"RA_OF_ASC_NODE":154.7728,"ARG_OF_PERICENTER":261.8261,"MEAN_ANOMALY":98.2597,"EPHEMERIS_TYPE":0,"CLASSIFICATION_TYPE":"U","NORAD_CAT_ID":49175,"ELEMENT_SET_NO":999,"REV_AT_EPOCH":23221,"BSTAR":-0.00017225,"MEAN_MOTION_DOT":-2.103e-5,"MEAN_MOTION_DDOT":0},{"OBJECT_NAME":"STARLINK-3069","OBJECT_ID":"2021-082AY","EPOCH":"2025-12-04T15:20:05.174592","MEAN_MOTION":14.98337194,"ECCENTRICITY":0.0002928,"INCLINATION":69.9993,"RA_OF_ASC_NODE":134.1082,"ARG_OF_PERICENTER":268.0768,"MEAN_ANOMALY":92.0056,"EPHEMERIS_TYPE":0,"CLASSIFICATION_TYPE":"U","NORAD_CAT_ID":49176,"ELEMENT_SET_NO":999,"REV_AT_EPOCH":23272,"BSTAR":-9.3848e-5,"MEAN_MOTION_DOT":-1.213e-5,"MEAN_MOTION_DDOT":0},{"OBJECT_NAME":"STARLINK-3103","OBJECT_ID":"2021-082AZ","EPOCH":"2025-12-04T14:13:59.670336","MEAN_MOTION":14.98337211,"ECCENTRICITY":0.0002977,"INCLINATION":69.9991,"RA_OF_ASC_NODE":134.2341,"ARG_OF_PERICENTER":271.4839,"MEAN_ANOMALY":88.5979,"EPHEMERIS_TYPE":0,"CLASSIFICATION_TYPE":"U","NORAD_CAT_ID":49177,"ELEMENT_SET_NO":999,"REV_AT_EPOCH":23391,"BSTAR":7.1726e-5,"MEAN_MOTION_DOT":7.63e-6,"MEAN_MOTION_DDOT":0},{"OBJECT_NAME":"STARLINK-3086","OBJECT_ID":"2021-082BA","EPOCH":"2025-12-04T16:26:51.006912","MEAN_MOTION":14.98331024,"ECCENTRICITY":0.000291,"INCLINATION":69.9983,"RA_OF_ASC_NODE":173.98,"ARG_OF_PERICENTER":268.3027,"MEAN_ANOMALY":91.7798,"EPHEMERIS_TYPE":0,"CLASSIFICATION_TYPE":"U","NORAD_CAT_ID":49178,"ELEMENT_SET_NO":999,"REV_AT_EPOCH":23290,"BSTAR":2.0285e-5,"MEAN_MOTION_DOT":1.49e-6,"MEAN_MOTION_DDOT":0},{"OBJECT_NAME":"STARLINK-3043","OBJECT_ID":"2021-082BB","EPOCH":"2025-12-04T15:32:06.495360","MEAN_MOTION":14.98337404,"ECCENTRICITY":0.0002781,"INCLINATION":69.999,"RA_OF_ASC_NODE":134.0799,"ARG_OF_PERICENTER":271.0558,"MEAN_ANOMALY":89.0282,"EPHEMERIS_TYPE":0,"CLASSIFICATION_TYPE":"U","NORAD_CAT_ID":49179,"ELEMENT_SET_NO":999,"REV_AT_EPOCH":23272,"BSTAR":0.0001936,"MEAN_MOTION_DOT":2.218e-5,"MEAN_MOTION_DDOT":0},{"OBJECT_NAME":"STARLINK-3050","OBJECT_ID":"2021-082BC","EPOCH":"2025-12-04T16:44:32.804160","MEAN_MOTION":14.98325947,"ECCENTRICITY":0.0002973,"INCLINATION":69.9987,"RA_OF_ASC_NODE":153.9599,"ARG_OF_PERICENTER":270.6401,"MEAN_ANOMALY":89.4418,"EPHEMERIS_TYPE":0,"CLASSIFICATION_TYPE":"U","NORAD_CAT_ID":49180,"ELEMENT_SET_NO":999,"REV_AT_EPOCH":23341,"BSTAR":-2.9879e-5,"MEAN_MOTION_DOT":-4.49e-6,"MEAN_MOTION_DDOT":0},{"OBJECT_NAME":"STARLINK-3059","OBJECT_ID":"2021-082BD","EPOCH":"2025-12-04T16:02:49.276896","MEAN_MOTION":14.98327436,"ECCENTRICITY":0.0002758,"INCLINATION":69.9991,"RA_OF_ASC_NODE":174.0377,"ARG_OF_PERICENTER":262.9561,"MEAN_ANOMALY":97.1284,"EPHEMERIS_TYPE":0,"CLASSIFICATION_TYPE":"U","NORAD_CAT_ID":49181,"ELEMENT_SET_NO":999,"REV_AT_EPOCH":23293,"BSTAR":-0.00016712,"MEAN_MOTION_DOT":-2.086e-5,"MEAN_MOTION_DDOT":0},{"OBJECT_NAME":"STARLINK-3151","OBJECT_ID":"2021-104A","EPOCH":"2025-12-04T14:12:40.840704","MEAN_MOTION":15.08844008,"ECCENTRICITY":0.0001522,"INCLINATION":53.2191,"RA_OF_ASC_NODE":296.0602,"ARG_OF_PERICENTER":88.934,"MEAN_ANOMALY":271.1826,"EPHEMERIS_TYPE":0,"CLASSIFICATION_TYPE":"U","NORAD_CAT_ID":49408,"ELEMENT_SET_NO":999,"REV_AT_EPOCH":22427,"BSTAR":8.8891e-5,"MEAN_MOTION_DOT":1.127e-5,"MEAN_MOTION_DDOT":0},{"OBJECT_NAME":"STARLINK-3075","OBJECT_ID":"2021-104B","EPOCH":"2025-12-04T05:00:10.867968","MEAN_MOTION":15.08855837,"ECCENTRICITY":0.0001436,"INCLINATION":53.2174,"RA_OF_ASC_NODE":297.7514,"ARG_OF_PERICENTER":93.7441,"MEAN_ANOMALY":266.3716,"EPHEMERIS_TYPE":0,"CLASSIFICATION_TYPE":"U","NORAD_CAT_ID":49409,"ELEMENT_SET_NO":999,"REV_AT_EPOCH":22422,"BSTAR":5.7774e-5,"MEAN_MOTION_DOT":6.32e-6,"MEAN_MOTION_DDOT":0},{"OBJECT_NAME":"STARLINK-3147","OBJECT_ID":"2021-104C","EPOCH":"2025-12-04T04:50:58.090272","MEAN_MOTION":15.08843552,"ECCENTRICITY":0.000152,"INCLINATION":53.2193,"RA_OF_ASC_NODE":297.7928,"ARG_OF_PERICENTER":97.1202,"MEAN_ANOMALY":262.9963,"EPHEMERIS_TYPE":0,"CLASSIFICATION_TYPE":"U","NORAD_CAT_ID":49410,"ELEMENT_SET_NO":999,"REV_AT_EPOCH":22421,"BSTAR":8.9926e-5,"MEAN_MOTION_DOT":1.144e-5,"MEAN_MOTION_DDOT":0},{"OBJECT_NAME":"STARLINK-3162","OBJECT_ID":"2021-104D","EPOCH":"2025-12-04T14:12:36.513792","MEAN_MOTION":15.08855149,"ECCENTRICITY":0.000141,"INCLINATION":53.2184,"RA_OF_ASC_NODE":286.0273,"ARG_OF_PERICENTER":100.5466,"MEAN_ANOMALY":259.5685,"EPHEMERIS_TYPE":0,"CLASSIFICATION_TYPE":"U","NORAD_CAT_ID":49411,"ELEMENT_SET_NO":999,"REV_AT_EPOCH":22441,"BSTAR":0.00016484,"MEAN_MOTION_DOT":2.338e-5,"MEAN_MOTION_DDOT":0},{"OBJECT_NAME":"STARLINK-3157","OBJECT_ID":"2021-104F","EPOCH":"2025-12-04T14:08:42.209088","MEAN_MOTION":15.08850105,"ECCENTRICITY":0.0001576,"INCLINATION":53.2196,"RA_OF_ASC_NODE":286.0497,"ARG_OF_PERICENTER":95.7813,"MEAN_ANOMALY":264.3359,"EPHEMERIS_TYPE":0,"CLASSIFICATION_TYPE":"U","NORAD_CAT_ID":49413,"ELEMENT_SET_NO":999,"REV_AT_EPOCH":22441,"BSTAR":7.5647e-6,"MEAN_MOTION_DOT":-1.68e-6,"MEAN_MOTION_DDOT":0},{"OBJECT_NAME":"STARLINK-3146","OBJECT_ID":"2021-104G","EPOCH":"2025-12-04T04:44:17.181312","MEAN_MOTION":15.08845989,"ECCENTRICITY":0.0001313,"INCLINATION":53.2178,"RA_OF_ASC_NODE":297.8036,"ARG_OF_PERICENTER":98.103,"MEAN_ANOMALY":262.0111,"EPHEMERIS_TYPE":0,"CLASSIFICATION_TYPE":"U","NORAD_CAT_ID":49414,"ELEMENT_SET_NO":999,"REV_AT_EPOCH":22421,"BSTAR":0.00013023606,"MEAN_MOTION_DOT":1.786e-5,"MEAN_MOTION_DDOT":0},{"OBJECT_NAME":"STARLINK-3159","OBJECT_ID":"2021-104H","EPOCH":"2025-12-04T14:02:02.837184","MEAN_MOTION":15.08835614,"ECCENTRICITY":0.0001353,"INCLINATION":53.2197,"RA_OF_ASC_NODE":286.0633,"ARG_OF_PERICENTER":81.8255,"MEAN_ANOMALY":278.2891,"EPHEMERIS_TYPE":0,"CLASSIFICATION_TYPE":"U","NORAD_CAT_ID":49415,"ELEMENT_SET_NO":999,"REV_AT_EPOCH":22440,"BSTAR":-5.9312e-7,"MEAN_MOTION_DOT":-2.97e-6,"MEAN_MOTION_DDOT":0}]
